{
  "type": "FeatureCollection",
  "features": [
    {
      "type": "Feature",
      "properties": {
        "norad_id": 28899,
        "name": "INMARSAT 4-F2 (SOUTHPAN/PRN 122)",
        "group": "gnss",
        "lat": -4.661648452102985,
        "lon": -62.942101112486334,
        "alt_km": 35776.35132213225,
        "timestamp": "2025-12-10T04:57:29.859981+00:00",
        "meta_object_name": "INMARSAT 4-F2 (SOUTHPAN/PRN 122)",
        "meta_object_id": "2005-044A",
        "meta_epoch": "2025-12-09T12:32:28.611168",
        "meta_mean_motion": 1.00277374,
        "meta_eccentricity": 0.0003089,
        "meta_inclination": 4.8484,
        "meta_ra_of_asc_node": 43.6799,
        "meta_arg_of_pericenter": 205.8718,
        "meta_mean_anomaly": 160.592,
        "meta_ephemeris_type": 0,
        "meta_classification_type": "U",
        "meta_norad_cat_id": 28899,
        "meta_element_set_no": 999,
        "meta_rev_at_epoch": 7362,
        "meta_bstar": 0,
        "meta_mean_motion_dot": -2.58e-06,
        "meta_mean_motion_ddot": 0,
        "tle_line1": "1 28899U 05044A   25343.52255337 -.00000258  00000+0  00000+0 0  9992",
        "tle_line2": "2 28899   4.8484  43.6799 0003089 205.8718 160.5920  1.00277374 73627"
      },
      "geometry": {
        "type": "Point",
        "coordinates": [
          -62.942101112486334,
          -4.661648452102985
        ]
      }
    },
    {
      "type": "Feature",
      "properties": {
        "norad_id": 29486,
        "name": "GPS BIIRM-2 (PRN 31)",
        "group": "gnss",
        "lat": 40.96499756000375,
        "lon": -59.148882650568574,
        "alt_km": 20099.443337603243,
        "timestamp": "2025-12-10T04:57:29.859995+00:00",
        "meta_object_name": "GPS BIIRM-2 (PRN 31)",
        "meta_object_id": "2006-042A",
        "meta_epoch": "2025-12-09T13:14:35.270304",
        "meta_mean_motion": 2.00554233,
        "meta_eccentricity": 0.0107363,
        "meta_inclination": 54.6937,
        "meta_ra_of_asc_node": 158.8672,
        "meta_arg_of_pericenter": 51.886,
        "meta_mean_anomaly": 320.6455,
        "meta_ephemeris_type": 0,
        "meta_classification_type": "U",
        "meta_norad_cat_id": 29486,
        "meta_element_set_no": 999,
        "meta_rev_at_epoch": 14059,
        "meta_bstar": 0,
        "meta_mean_motion_dot": 6.7e-07,
        "meta_mean_motion_ddot": 0,
        "tle_line1": "1 29486U 06042A   25343.55179711  .00000067  00000+0  00000+0 0  9995",
        "tle_line2": "2 29486  54.6937 158.8672 0107363  51.8860 320.6455  2.00554233140598"
      },
      "geometry": {
        "type": "Point",
        "coordinates": [
          -59.148882650568574,
          40.96499756000375
        ]
      }
    },
    {
      "type": "Feature",
      "properties": {
        "norad_id": 29601,
        "name": "GPS BIIRM-3 (PRN 12)",
        "group": "gnss",
        "lat": -3.085292527500502,
        "lon": 43.672725612517404,
        "alt_km": 20205.81518796138,
        "timestamp": "2025-12-10T04:57:29.860007+00:00",
        "meta_object_name": "GPS BIIRM-3 (PRN 12)",
        "meta_object_id": "2006-052A",
        "meta_epoch": "2025-12-08T22:59:17.672352",
        "meta_mean_motion": 2.00573222,
        "meta_eccentricity": 0.0087721,
        "meta_inclination": 54.9712,
        "meta_ra_of_asc_node": 221.5484,
        "meta_arg_of_pericenter": 87.3994,
        "meta_mean_anomaly": 273.6864,
        "meta_ephemeris_type": 0,
        "meta_classification_type": "U",
        "meta_norad_cat_id": 29601,
        "meta_element_set_no": 999,
        "meta_rev_at_epoch": 13959,
        "meta_bstar": 0,
        "meta_mean_motion_dot": 1e-07,
        "meta_mean_motion_ddot": 0,
        "tle_line1": "1 29601U 06052A   25342.95784343  .00000010  00000+0  00000+0 0  9999",
        "tle_line2": "2 29601  54.9712 221.5484 0087721  87.3994 273.6864  2.00573222139595"
      },
      "geometry": {
        "type": "Point",
        "coordinates": [
          43.672725612517404,
          -3.085292527500502
        ]
      }
    },
    {
      "type": "Feature",
      "properties": {
        "norad_id": 32260,
        "name": "GPS BIIRM-4 (PRN 15)",
        "group": "gnss",
        "lat": -30.386918705095585,
        "lon": 62.61474069043942,
        "alt_km": 20423.99162024515,
        "timestamp": "2025-12-10T04:57:29.860020+00:00",
        "meta_object_name": "GPS BIIRM-4 (PRN 15)",
        "meta_object_id": "2007-047A",
        "meta_epoch": "2025-12-09T06:19:25.464288",
        "meta_mean_motion": 2.00564591,
        "meta_eccentricity": 0.016427,
        "meta_inclination": 53.953,
        "meta_ra_of_asc_node": 87.9021,
        "meta_arg_of_pericenter": 85.2089,
        "meta_mean_anomaly": 276.6577,
        "meta_ephemeris_type": 0,
        "meta_classification_type": "U",
        "meta_norad_cat_id": 32260,
        "meta_element_set_no": 999,
        "meta_rev_at_epoch": 13300,
        "meta_bstar": 0,
        "meta_mean_motion_dot": -1.5e-07,
        "meta_mean_motion_ddot": 0,
        "tle_line1": "1 32260U 07047A   25343.26348917 -.00000015  00000+0  00000+0 0  9993",
        "tle_line2": "2 32260  53.9530  87.9021 0164270  85.2089 276.6577  2.00564591133008"
      },
      "geometry": {
        "type": "Point",
        "coordinates": [
          62.61474069043942,
          -30.386918705095585
        ]
      }
    },
    {
      "type": "Feature",
      "properties": {
        "norad_id": 32275,
        "name": "COSMOS 2433 (720)",
        "group": "gnss",
        "lat": -45.55812307441479,
        "lon": -65.16652441323508,
        "alt_km": 19127.295216718874,
        "timestamp": "2025-12-10T04:57:29.860032+00:00",
        "meta_object_name": "COSMOS 2433 (720)",
        "meta_object_id": "2007-052A",
        "meta_epoch": "2025-12-09T08:02:51.661824",
        "meta_mean_motion": 2.13103784,
        "meta_eccentricity": 0.0005582,
        "meta_inclination": 65.6852,
        "meta_ra_of_asc_node": 322.3203,
        "meta_arg_of_pericenter": 252.1603,
        "meta_mean_anomaly": 107.7768,
        "meta_ephemeris_type": 0,
        "meta_classification_type": "U",
        "meta_norad_cat_id": 32275,
        "meta_element_set_no": 999,
        "meta_rev_at_epoch": 14101,
        "meta_bstar": 0,
        "meta_mean_motion_dot": -4.9e-07,
        "meta_mean_motion_ddot": 0,
        "tle_line1": "1 32275U 07052A   25343.33532016 -.00000049  00000+0  00000+0 0  9995",
        "tle_line2": "2 32275  65.6852 322.3203 0005582 252.1603 107.7768  2.13103784141019"
      },
      "geometry": {
        "type": "Point",
        "coordinates": [
          -65.16652441323508,
          -45.55812307441479
        ]
      }
    },
    {
      "type": "Feature",
      "properties": {
        "norad_id": 32276,
        "name": "COSMOS 2432 (719)",
        "group": "gnss",
        "lat": -60.50165038334448,
        "lon": -164.61296790575787,
        "alt_km": 19121.247699208863,
        "timestamp": "2025-12-10T04:57:29.860044+00:00",
        "meta_object_name": "COSMOS 2432 (719)",
        "meta_object_id": "2007-052B",
        "meta_epoch": "2025-12-09T13:28:48.375264",
        "meta_mean_motion": 2.13102958,
        "meta_eccentricity": 0.00112506,
        "meta_inclination": 65.7007,
        "meta_ra_of_asc_node": 322.4368,
        "meta_arg_of_pericenter": 311.4097,
        "meta_mean_anomaly": 166.6519,
        "meta_ephemeris_type": 0,
        "meta_classification_type": "U",
        "meta_norad_cat_id": 32276,
        "meta_element_set_no": 999,
        "meta_rev_at_epoch": 14104,
        "meta_bstar": 0,
        "meta_mean_motion_dot": -4.9e-07,
        "meta_mean_motion_ddot": 0,
        "tle_line1": "1 32276U 07052B   25343.56167101 -.00000049  00000+0  00000+0 0  9990",
        "tle_line2": "2 32276  65.7007 322.4368 0011250 311.4097 166.6519  2.13102958141044"
      },
      "geometry": {
        "type": "Point",
        "coordinates": [
          -164.61296790575787,
          -60.50165038334448
        ]
      }
    },
    {
      "type": "Feature",
      "properties": {
        "norad_id": 32384,
        "name": "GPS BIIRM-5 (PRN 29)",
        "group": "gnss",
        "lat": 55.166887454719,
        "lon": 14.577175185631235,
        "alt_km": 20146.392527671207,
        "timestamp": "2025-12-10T04:57:29.860064+00:00",
        "meta_object_name": "GPS BIIRM-5 (PRN 29)",
        "meta_object_id": "2007-062A",
        "meta_epoch": "2025-12-09T05:13:26.504832",
        "meta_mean_motion": 2.0057704,
        "meta_eccentricity": 0.0032222,
        "meta_inclination": 55.1853,
        "meta_ra_of_asc_node": 281.7872,
        "meta_arg_of_pericenter": 162.5734,
        "meta_mean_anomaly": 295.2792,
        "meta_ephemeris_type": 0,
        "meta_classification_type": "U",
        "meta_norad_cat_id": 32384,
        "meta_element_set_no": 999,
        "meta_rev_at_epoch": 13170,
        "meta_bstar": 0,
        "meta_mean_motion_dot": -5.2e-07,
        "meta_mean_motion_ddot": 0,
        "tle_line1": "1 32384U 07062A   25343.21766788 -.00000052  00000+0  00000+0 0  9993",
        "tle_line2": "2 32384  55.1853 281.7872 0032222 162.5734 295.2792  2.00577040131706"
      },
      "geometry": {
        "type": "Point",
        "coordinates": [
          14.577175185631235,
          55.166887454719
        ]
      }
    }
  ]
}